[{"OBJECT_NAME":"STARLINK-34096","OBJECT_ID":"2025-102X","EPOCH":"2026-03-09T12:16:41.946240","MEAN_MOTION":14.9833116,"ECCENTRICITY":0.00037929,"INCLINATION":70.0002,"RA_OF_ASC_NODE":114.9789,"ARG_OF_PERICENTER":267.5926,"MEAN_ANOMALY":92.4799,"EPHEMERIS_TYPE":0,"CLASSIFICATION_TYPE":"U","NORAD_CAT_ID":64043,"ELEMENT_SET_NO":999,"REV_AT_EPOCH":4581,"BSTAR":0.00029331627,"MEAN_MOTION_DOT":3.409e-5,"MEAN_MOTION_DDOT":0},{"OBJECT_NAME":"SL-8 R\/B","OBJECT_ID":"1968-040B","EPOCH":"2026-03-09T18:37:46.369632","MEAN_MOTION":15.03260494,"ECCENTRICITY":0.00239141,"INCLINATION":74.0322,"RA_OF_ASC_NODE":313.5182,"ARG_OF_PERICENTER":137.361,"MEAN_ANOMALY":222.9441,"EPHEMERIS_TYPE":0,"CLASSIFICATION_TYPE":"U","NORAD_CAT_ID":3230,"ELEMENT_SET_NO":999,"REV_AT_EPOCH":9002,"BSTAR":0.00025747843,"MEAN_MOTION_DOT":3.469e-5,"MEAN_MOTION_DDOT":0}]
